1 39591U          19305.65555556  .00000000  00000-0  00000-0 0 00000
2 39591 097.7390 66.0970 0000000 000.0000 327.3860 15.01920000000000
1 39591U          19306.06597222  .00000000  00000-0  00000-0 0 00000
2 39591 097.7400 66.5020 0000000 000.0000 023.6370 15.01920000000000
1 39591U          19306.40347222  .00000000  00000-0  00000-0 0 00000
2 39591 097.7400 66.8340 0000000 000.0000 046.1370 15.01920000000000
1 39591U          19306.70416667  .00000000  00000-0  00000-0 0 00000
2 39591 097.7400 67.1310 0000000 000.0000 229.8880 15.01920000000000
1 39591U          19306.98055556  .00000000  00000-0  00000-0 0 00000
2 39591 097.7400 67.4030 0000000 000.0000 282.3880 15.01920000000000
1 39591U          19307.25625000  .00000000  00000-0  00000-0 0 00000
2 39591 097.7400 67.6750 0000000 000.0000 331.1390 15.01920000000000
1 39591U          19307.66180556  .00000000  00000-0  00000-0 0 00000
2 39591 097.7410 68.0750 0000000 000.0000 001.1390 15.01920000000000
1 39591U          19307.91944444  .00000000  00000-0  00000-0 0 00000
2 39591 097.7410 68.3290 0000000 000.0000 312.3900 15.01920000000000
1 39591U          19308.33541667  .00000000  00000-0  00000-0 0 00000
2 39591 097.7410 68.7390 0000000 000.0000 038.6410 15.01920000000000
1 39591U          19308.73819444  .00000000  00000-0  00000-0 0 00000
2 39591 097.7410 69.1360 0000000 000.0000 053.6410 15.01920000000000
1 39591U          19308.94305556  .00000000  00000-0  00000-0 0 00000
2 39591 097.7420 69.3380 0000000 000.0000 079.8920 15.01920000000000
1 39591U          19309.39652778  .00000000  00000-0  00000-0 0 00000
2 39591 097.7420 69.7850 0000000 000.0000 008.6430 15.01920000000000
1 39591U          19309.58611111  .00000000  00000-0  00000-0 0 00000
2 39591 097.7420 69.9720 0000000 000.0000 312.3930 15.01920000000000
1 39591U          19309.98750000  .00000000  00000-0  00000-0 0 00000
2 39591 097.7420 70.3680 0000000 000.0000 319.8940 15.01920000000000
1 39591U          19310.31388889  .00000000  00000-0  00000-0 0 00000
2 39591 097.7420 70.6890 0000000 000.0000 282.3940 15.01920000000000
1 39591U          19310.64027778  .00000000  00000-0  00000-0 0 00000
2 39591 097.7430 71.0110 0000000 000.0000 244.8950 15.01920000000000
1 39591U          19310.95138889  .00000000  00000-0  00000-0 0 00000
2 39591 097.7430 71.3180 0000000 000.0000 124.8950 15.01920000000000
1 39591U          19311.31805556  .00000000  00000-0  00000-0 0 00000
2 39591 097.7430 71.6790 0000000 000.0000 304.8960 15.01920000000000
1 39591U          19311.72013889  .00000000  00000-0  00000-0 0 00000
2 39591 097.7430 72.0760 0000000 000.0000 316.1470 15.01920000000000
1 39591U          19311.90833333  .00000000  00000-0  00000-0 0 00000
2 39591 097.7430 72.2610 0000000 000.0000 252.3970 15.01914300000000
1 39591U          19312.28472222  .00000000  00000-0  00000-0 0 00000
2 39591 097.7440 72.6320 0000000 000.0000 124.8980 15.01914300000000
1 39591U          19312.51458333  .00000000  00000-0  00000-0 0 00000
2 39591 097.7440 72.8590 0000000 000.0000 286.1480 15.01914300000000
1 39591U          19312.96180556  .00000000  00000-0  00000-0 0 00000
2 39591 097.7440 73.3000 0000000 000.0000 181.1490 15.01914300000000
1 39591U          19313.29236111  .00000000  00000-0  00000-0 0 00000
2 39591 097.7440 73.6260 0000000 000.0000 166.1500 15.01914300000000
1 39591U          19313.53472222  .00000000  00000-0  00000-0 0 00000
2 39591 097.7440 73.8650 0000000 000.0000 034.9000 15.01914300000000
1 39591U          19313.84305556  .00000000  00000-0  00000-0 0 00000
2 39591 097.7440 74.1690 0000000 000.0000 259.9010 15.01914300000000
1 39591U          19314.26666667  .00000000  00000-0  00000-0 0 00000
2 39591 097.7450 74.5860 0000000 000.0000 027.4010 15.01914300000000
1 39591U          19314.54444444  .00000000  00000-0  00000-0 0 00000
2 39591 097.7450 74.8600 0000000 000.0000 087.4020 15.01914300000000
1 39591U          19314.97152778  .00000000  00000-0  00000-0 0 00000
2 39591 097.7450 75.2810 0000000 000.0000 233.6530 15.01914300000000
1 39591U          19315.31250000  .00000000  00000-0  00000-0 0 00000
2 39591 097.7450 75.6170 0000000 000.0000 274.9030 15.01914300000000
1 39591U          19315.47986111  .00000000  00000-0  00000-0 0 00000
2 39591 097.7450 75.7820 0000000 000.0000 098.6540 15.01914300000000
1 39591U          19315.96319444  .00000000  00000-0  00000-0 0 00000
2 39591 097.7450 76.2590 0000000 000.0000 188.6550 15.01914300000000
1 39591U          19316.17083333  .00000000  00000-0  00000-0 0 00000
2 39591 097.7450 76.4630 0000000 000.0000 229.9050 15.01914300000000
1 39591U          19316.63611111  .00000000  00000-0  00000-0 0 00000
2 39591 097.7460 76.9220 0000000 000.0000 222.4060 15.01914300000000
1 39591U          19316.97430556  .00000000  00000-0  00000-0 0 00000
2 39591 097.7460 77.2560 0000000 000.0000 248.6570 15.01914300000000
1 39591U          19317.16666667  .00000000  00000-0  00000-0 0 00000
2 39591 097.7460 77.4450 0000000 000.0000 207.4070 15.01914300000000
1 39591U          19317.50486111  .00000000  00000-0  00000-0 0 00000
2 39591 097.7460 77.7790 0000000 000.0000 233.6580 15.01914300000000
1 39591U          19317.83333333  .00000000  00000-0  00000-0 0 00000
2 39591 097.7460 78.1020 0000000 000.0000 207.4080 15.01914300000000
1 39591U          19318.18194444  .00000000  00000-0  00000-0 0 00000
2 39591 097.7460 78.4460 0000000 000.0000 289.9090 15.01914300000000
1 39591U          19318.56458333  .00000000  00000-0  00000-0 0 00000
2 39591 097.7460 78.8230 0000000 000.0000 196.1600 15.01914300000000
1 39591U          19318.88819444  .00000000  00000-0  00000-0 0 00000
2 39591 097.7460 79.1420 0000000 000.0000 143.6600 15.01914300000000
1 39591U          19318.89583333  .00000000  00000-0  00000-0 0 00000
2 39591 097.7460 79.1500 0000000 000.0000 184.9100 15.01914300000000
1 39591U          19319.29236111  .00000000  00000-0  00000-0 0 00000
2 39591 097.7470 79.5410 0000000 000.0000 166.1610 15.01914300000000
1 39591U          19319.63472222  .00000000  00000-0  00000-0 0 00000
2 39591 097.7470 79.8780 0000000 000.0000 214.9120 15.01914300000000
1 39591U          19319.92361111  .00000000  00000-0  00000-0 0 00000
2 39591 097.7470 80.1630 0000000 000.0000 334.9120 15.01914300000000
1 39591U          19320.31180556  .00000000  00000-0  00000-0 0 00000
2 39591 097.7470 80.5460 0000000 000.0000 271.1630 15.01914300000000
1 39591U          19320.50833333  .00000000  00000-0  00000-0 0 00000
2 39591 097.7470 80.7400 0000000 000.0000 252.4130 15.01914300000000
1 39591U          19320.94791667  .00000000  00000-0  00000-0 0 00000
2 39591 097.7470 81.1730 0000000 000.0000 106.1640 15.01914300000000
1 39591U          19321.28333333  .00000000  00000-0  00000-0 0 00000
2 39591 097.7470 81.5040 0000000 000.0000 117.4150 15.01914300000000
1 39591U          19321.57083333  .00000000  00000-0  00000-0 0 00000
2 39591 097.7470 81.7870 0000000 000.0000 229.9150 15.01914300000000
1 39591U          19321.85069444  .00000000  00000-0  00000-0 0 00000
2 39591 097.7470 82.0630 0000000 000.0000 301.1660 15.01914300000000
1 39591U          19322.25902778  .00000000  00000-0  00000-0 0 00000
2 39591 097.7470 82.4660 0000000 000.0000 346.1670 15.01914300000000
1 39591U          19322.59375000  .00000000  00000-0  00000-0 0 00000
2 39591 097.7470 82.7960 0000000 000.0000 353.6670 15.01914300000000
1 39591U          19322.84513889  .00000000  00000-0  00000-0 0 00000
2 39591 097.7480 83.0430 0000000 000.0000 271.1680 15.01914300000000
1 39591U          19323.22291667  .00000000  00000-0  00000-0 0 00000
2 39591 097.7480 83.4160 0000000 000.0000 151.1680 15.01914300000000
1 39591U          19323.53541667  .00000000  00000-0  00000-0 0 00000
2 39591 097.7480 83.7240 0000000 000.0000 038.6690 15.01914300000000
1 39591U          19323.93194444  .00000000  00000-0  00000-0 0 00000
2 39591 097.7480 84.1150 0000000 000.0000 019.9200 15.01914300000000
1 39591U          19324.17847222  .00000000  00000-0  00000-0 0 00000
2 39591 097.7480 84.3580 0000000 000.0000 271.1700 15.01914300000000
1 39591U          19324.55138889  .00000000  00000-0  00000-0 0 00000
2 39591 097.7480 84.7250 0000000 000.0000 124.9210 15.01914300000000
1 39591U          19324.94027778  .00000000  00000-0  00000-0 0 00000
2 39591 097.7480 85.1090 0000000 000.0000 064.9220 15.01914300000000
1 39591U          19325.18125000  .00000000  00000-0  00000-0 0 00000
2 39591 097.7480 85.3460 0000000 000.0000 286.1720 15.01914300000000
1 39591U          19325.61111111  .00000000  00000-0  00000-0 0 00000
2 39591 097.7480 85.7700 0000000 000.0000 087.4230 15.01914300000000
1 39591U          19325.89583333  .00000000  00000-0  00000-0 0 00000
2 39591 097.7480 86.0510 0000000 000.0000 184.9230 15.01914300000000
1 39591U          19325.90347222  .00000000  00000-0  00000-0 0 00000
2 39591 097.7480 86.0580 0000000 000.0000 226.1730 15.01914300000000
1 39591U          19326.15833333  .00000000  00000-0  00000-0 0 00000
2 39591 097.7480 86.3100 0000000 000.0000 162.4240 15.01914300000000
1 39591U          19326.60138889  .00000000  00000-0  00000-0 0 00000
2 39591 097.7480 86.7470 0000000 000.0000 034.9250 15.01914300000000
1 39591U          19326.93819444  .00000000  00000-0  00000-0 0 00000
2 39591 097.7480 87.0790 0000000 000.0000 053.6750 15.01914300000000
1 39591U          19327.19791667  .00000000  00000-0  00000-0 0 00000
2 39591 097.7480 87.3350 0000000 000.0000 016.1760 15.01914300000000
1 39591U          19327.50138889  .00000000  00000-0  00000-0 0 00000
2 39591 097.7480 87.6340 0000000 000.0000 214.9270 15.01914300000000
1 39591U          19327.95416667  .00000000  00000-0  00000-0 0 00000
2 39591 097.7480 88.0800 0000000 000.0000 139.9270 15.01914300000000
1 39591U          19328.17569444  .00000000  00000-0  00000-0 0 00000
2 39591 097.7480 88.2990 0000000 000.0000 256.1780 15.01914300000000
